OBJECT_NAME,OBJECT_ID,EPOCH,MEAN_MOTION,ECCENTRICITY,INCLINATION,RA_OF_ASC_NODE,ARG_OF_PERICENTER,MEAN_ANOMALY,EPHEMERIS_TYPE,CLASSIFICATION_TYPE,NORAD_CAT_ID,ELEMENT_SET_NO,REV_AT_EPOCH,BSTAR,MEAN_MOTION_DOT,MEAN_MOTION_DDOT
YAMAL 300K,2012-061B,2026-06-20T06:16:35.956128,1.00269892,.0001077,0.0163,299.7185,322.3586,283.5026,0,U,38978,999,4966,0,.66E-6,0
STAR ONE C3,2012-062A,2026-06-19T21:04:30.880416,1.00267879,.00024811,0.0193,6.1551,95.7387,47.3461,0,U,38991,999,4979,0,0,0
EUTELSAT 21B,2012-062B,2026-06-19T20:12:38.611584,1.00268835,.00030843,0.0652,350.1032,88.2997,154.4388,0,U,38992,999,4985,0,.124E-5,0
ECHOSTAR 16,2012-065A,2026-06-19T19:25:43.603680,1.00269271,.00021682,0.0178,15.5451,70.1698,52.2411,0,U,39008,999,4967,0,-.287E-5,0
YAOGAN-16 01A,2012-066A,2026-06-19T16:57:46.827072,13.45516465,.04356224,63.3544,283.2961,27.1532,335.1565,0,U,39011,999,66648,.20715978E-4,-.69E-6,0
YAOGAN-16 01B,2012-066B,2026-06-19T18:51:24.858432,13.45513159,.04358216,63.3548,283.3134,26.8964,335.3948,0,U,39012,999,66645,.13457417E-4,-.77E-6,0
YAOGAN-16 01C,2012-066C,2026-06-19T22:25:17.389920,13.45504945,.04359603,63.3557,282.4250,26.4624,335.7963,0,U,39013,999,66650,.40312096E-4,-.49E-6,0
ZHONGXING-12,2012-067A,2026-06-19T21:50:47.912064,1.00271131,.00027619,0.0453,91.3557,348.6027,243.3615,0,U,39017,999,4953,0,-.212E-5,0
PLEIADES 1B,2012-068A,2026-06-19T21:24:46.099872,14.58561264,.00016741,98.1944,245.9069,91.4617,268.6774,0,U,39019,999,72124,.12809569E-4,.14E-6,0
EUTELSAT 70B,2012-069A,2026-06-19T21:45:34.852896,1.00271872,.00038798,0.0674,21.0654,59.6588,224.2840,0,U,39020,999,4953,0,-.49E-6,0
YAMAL 402,2012-070A,2026-06-20T04:32:09.921408,1.00271033,.0003784,1.2737,84.1208,3.0184,304.1957,0,U,39022,999,4942,0,.81E-6,0
GOKTURK 2,2012-073A,2026-06-19T22:17:40.192224,14.75547044,.00015053,97.6814,8.2225,56.3138,303.8216,0,U,39030,999,72491,.13530078E-3,.875E-5,0
SKYNET 5D,2012-075A,2026-06-19T18:15:33.177888,1.00271606,.0003617,0.0658,356.7490,99.7745,138.1088,0,U,39034,999,4918,0,.94E-6,0
MEXSAT 3,2012-075B,2026-06-19T20:53:01.981248,1.00266290,.0001451,0.0187,23.1058,49.5386,33.9046,0,U,39035,999,708,0,0,0
COSMOS 2482 (RODNIK-S 4),2013-001A,2026-06-19T22:29:41.064576,12.42996965,.002782,82.4970,218.6480,21.8460,338.3799,0,U,39057,999,60905,.76676245E-3,.116E-5,0
COSMOS 2483 (RODNIK-S 5),2013-001B,2026-06-19T22:20:36.269376,12.44025763,.00166488,82.4981,213.1982,11.7161,348.4303,0,U,39058,999,60193,.10462367E-2,.157E-5,0
COSMOS 2484 (RODNIK-S 6),2013-001C,2026-06-19T21:11:18.818880,12.42939458,.00267696,82.5005,220.2170,30.8680,329.3967,0,U,39059,999,60889,.18019082E-3,.35E-6,0
TDRS 11,2013-004A,2026-06-19T21:54:00.188352,1.00270452,.00053413,3.5245,31.3016,21.5576,9.3400,0,U,39070,999,4672,0,.72E-6,0
GLOBALSTAR M097,2013-005A,2026-06-19T11:01:19.765056,12.62247295,.00002447,52.0037,236.4213,127.8072,232.2817,0,U,39072,999,61719,.47234407E-4,-.95E-6,0
GLOBALSTAR M093,2013-005B,2026-06-19T10:22:42.708000,12.62266025,.00001776,52.0092,229.8497,80.7829,279.3058,0,U,39073,999,61714,.42859668E-4,-.96E-6,0
GLOBALSTAR M094,2013-005C,2026-06-19T21:46:42.099744,12.62268532,.0000481,51.9933,142.5159,10.1979,349.8897,0,U,39074,999,61881,-.54299086E-4,-.114E-5,0
GLOBALSTAR M096,2013-005D,2026-06-19T08:47:56.685120,12.62265687,.00000787,52.0044,192.9671,324.6662,35.4200,0,U,39075,999,61766,-.37302228E-4,-.11E-5,0
GLOBALSTAR M078,2013-005E,2026-06-19T13:51:11.029536,12.62257803,.00004944,51.9882,276.3326,238.1326,121.9493,0,U,39076,999,61631,-.11299381E-3,-.124E-5,0
GLOBALSTAR M095,2013-005F,2026-06-19T14:29:41.379360,12.62263485,.00001862,52.0089,273.8589,131.7452,228.3431,0,U,39077,999,61617,.11016074E-3,-.84E-6,0
AMAZONAS 3,2013-006A,2026-06-19T21:08:30.496992,1.00271611,.00020685,0.0311,211.7522,279.8970,32.5828,0,U,39078,999,4494,0,-.288E-5,0
AZERSPACE 1,2013-006B,2026-06-19T19:56:16.971072,1.00271506,.00014181,0.0211,59.7527,58.5128,134.8254,0,U,39079,999,4883,0,.128E-5,0
LANDSAT 8,2013-008A,2026-06-19T21:48:47.771136,14.57096084,.00013535,98.2301,241.0119,93.7751,266.3602,0,U,39084,999,69829,.62698964E-4,.237E-5,0
SARAL,2013-009A,2026-06-19T21:41:43.009728,14.32856484,.00006282,98.5558,357.4367,288.9492,71.1624,0,U,39086,999,69599,.35043564E-4,.52E-6,0
SAPPHIRE,2013-009C,2026-06-19T22:48:39.446784,14.35241192,.00101624,98.4263,350.3406,237.4939,122.5265,0,U,39088,999,69697,.38443601E-4,.67E-6,0
NEOSSAT,2013-009D,2026-06-19T12:13:12.274176,14.35827096,.00099784,98.4178,350.4865,236.0484,123.9755,0,U,39089,999,69707,.48829924E-4,.99E-6,0
STRAND-1,2013-009E,2026-06-19T10:09:20.022624,14.37164306,.00078423,98.3923,350.6024,217.8573,142.2063,0,U,39090,999,69738,.7937905E-4,.193E-5,0
