YAMAL 300K              
1 38978U 12061B   26171.26152727  .00000066  00000+0  00000+0 0  9994
2 38978   0.0163 299.7185 0001077 322.3586 283.5026  1.00269892 49660
STAR ONE C3             
1 38991U 12062A   26170.87813519  .00000000  00000+0  00000+0 0  9997
2 38991   0.0193   6.1551 0002481  95.7387  47.3461  1.00267879 49791
EUTELSAT 21B            
1 38992U 12062B   26170.84211356  .00000124  00000+0  00000+0 0  9993
2 38992   0.0652 350.1032 0003084  88.2997 154.4388  1.00268835 49850
ECHOSTAR 16             
1 39008U 12065A   26170.80953245 -.00000287  00000+0  00000+0 0  9992
2 39008   0.0178  15.5451 0002168  70.1698  52.2411  1.00269271 49676
YAOGAN-16 01A           
1 39011U 12066A   26170.70679198 -.00000069  00000+0  20716-4 0  9997
2 39011  63.3544 283.2961 0435622  27.1532 335.1565 13.45516465666482
YAOGAN-16 01B           
1 39012U 12066B   26170.78570438 -.00000077  00000+0  13457-4 0  9996
2 39012  63.3548 283.3134 0435821  26.8964 335.3948 13.45513159666457
YAOGAN-16 01C           
1 39013U 12066C   26170.93422905 -.00000049  00000+0  40312-4 0  9998
2 39013  63.3557 282.4250 0435960  26.4624 335.7963 13.45504945666500
ZHONGXING-12            
1 39017U 12067A   26170.91027676 -.00000212  00000+0  00000+0 0  9994
2 39017   0.0453  91.3557 0002761 348.6027 243.3615  1.00271131 49531
PLEIADES 1B             
1 39019U 12068A   26170.89220023  .00000014  00000+0  12810-4 0  9991
2 39019  98.1944 245.9069 0001674  91.4617 268.6774 14.58561264721248
EUTELSAT 70B            
1 39020U 12069A   26170.90665339 -.00000049  00000+0  00000+0 0  9991
2 39020   0.0674  21.0654 0003879  59.6588 224.2840  1.00271872 49530
YAMAL 402               
1 39022U 12070A   26171.18900372  .00000081  00000+0  00000+0 0  9990
2 39022   1.2737  84.1208 0003784   3.0184 304.1957  1.00271033 49424
GOKTURK 2               
1 39030U 12073A   26170.92893741  .00000875  00000+0  13530-3 0  9991
2 39030  97.6814   8.2225 0001505  56.3138 303.8216 14.75547044724915
SKYNET 5D               
1 39034U 12075A   26170.76080067  .00000094  00000+0  00000+0 0  9995
2 39034   0.0658 356.7490 0003617  99.7745 138.1088  1.00271606 49186
MEXSAT 3                
1 39035U 12075B   26170.87016182  .00000000  00000+0  00000+0 0  9992
2 39035   0.0187  23.1058 0001451  49.5386  33.9046  1.00266290  7089
COSMOS 2482 (RODNIK-S 4)
1 39057U 13001A   26170.93728084  .00000116  00000+0  76676-3 0  9998
2 39057  82.4970 218.6480 0027820  21.8460 338.3799 12.42996965609050
COSMOS 2483 (RODNIK-S 5)
1 39058U 13001B   26170.93097534  .00000157  00000+0  10462-2 0  9993
2 39058  82.4981 213.1982 0016648  11.7161 348.4303 12.44025763601935
COSMOS 2484 (RODNIK-S 6)
1 39059U 13001C   26170.88285670  .00000035  00000+0  18019-3 0  9990
2 39059  82.5005 220.2170 0026769  30.8680 329.3967 12.42939458608894
TDRS 11                 
1 39070U 13004A   26170.91250218  .00000072  00000+0  00000+0 0  9998
2 39070   3.5245  31.3016 0005341  21.5576   9.3400  1.00270452 46729
GLOBALSTAR M097         
1 39072U 13005A   26170.45925654 -.00000095  00000+0  47234-4 0  9994
2 39072  52.0037 236.4213 0000244 127.8072 232.2817 12.62247295617197
GLOBALSTAR M093         
1 39073U 13005B   26170.43243875 -.00000096  00000+0  42860-4 0  9992
2 39073  52.0092 229.8497 0000177  80.7829 279.3058 12.62266025617147
GLOBALSTAR M094         
1 39074U 13005C   26170.90743171 -.00000114  00000+0 -54299-4 0  9990
2 39074  51.9933 142.5159 0000481  10.1979 349.8897 12.62268532618811
GLOBALSTAR M096         
1 39075U 13005D   26170.36662830 -.00000110  00000+0 -37302-4 0  9995
2 39075  52.0044 192.9671 0000078 324.6662  35.4200 12.62265687617665
GLOBALSTAR M078         
1 39076U 13005E   26170.57721099 -.00000124  00000+0 -11299-3 0  9993
2 39076  51.9882 276.3326 0000494 238.1326 121.9493 12.62257803616313
GLOBALSTAR M095         
1 39077U 13005F   26170.60395115 -.00000084  00000+0  11016-3 0  9995
2 39077  52.0089 273.8589 0000186 131.7452 228.3431 12.62263485616175
AMAZONAS 3              
1 39078U 13006A   26170.88090853 -.00000288  00000+0  00000+0 0  9991
2 39078   0.0311 211.7522 0002068 279.8970  32.5828  1.00271611 44940
AZERSPACE 1             
1 39079U 13006B   26170.83075198  .00000128  00000+0  00000+0 0  9994
2 39079   0.0211  59.7527 0001418  58.5128 134.8254  1.00271506 48834
LANDSAT 8               
1 39084U 13008A   26170.90888624  .00000237  00000+0  62699-4 0  9994
2 39084  98.2301 241.0119 0001353  93.7751 266.3602 14.57096084698294
SARAL                   
1 39086U 13009A   26170.90397002  .00000052  00000+0  35044-4 0  9991
2 39086  98.5558 357.4367 0000628 288.9492  71.1624 14.32856484695995
SAPPHIRE                
1 39088U 13009C   26170.95045656  .00000067  00000+0  38444-4 0  9996
2 39088  98.4263 350.3406 0010162 237.4939 122.5265 14.35241192696972
NEOSSAT                 
1 39089U 13009D   26170.50916984  .00000099  00000+0  48830-4 0  9994
2 39089  98.4178 350.4865 0009978 236.0484 123.9755 14.35827096697075
STRAND-1                
1 39090U 13009E   26170.42314841  .00000193  00000+0  79379-4 0  9998
2 39090  98.3923 350.6024 0007842 217.8573 142.2063 14.37164306697387
